{
  "norad_id": 23712,
  "name": "USA 115 (MILSTAR-1 2)",
  "history": [
    {
      "epoch": "2026-04-25T08:19:16.633056Z",
      "apogee_km": 35763.86566657982,
      "perigee_km": 35756.48303443121,
      "latitude_deg": -9.349678204891665,
      "longitude_deg": -112.97982647986547,
      "height_km": 35763.4101537093,
      "semi_major_axis_km": 42138.311350505515,
      "eccentricity": 8.76e-05,
      "inclination_deg": 14.0553,
      "raan_deg": 4.1458,
      "arg_perigee_deg": 343.044,
      "mean_anomaly_deg": 238.8657,
      "mean_motion_rev_day": 1.00366105
    },
    {
      "epoch": "2026-04-26T16:22:38.699904Z",
      "apogee_km": 35763.72945384492,
      "perigee_km": 35756.44291229211,
      "latitude_deg": -3.706652820059824,
      "longitude_deg": -111.22684111113566,
      "height_km": 35756.59554108702,
      "semi_major_axis_km": 42138.22318306852,
      "eccentricity": 8.646e-05,
      "inclination_deg": 14.0557,
      "raan_deg": 4.1361,
      "arg_perigee_deg": 352.5833,
      "mean_anomaly_deg": 351.9448,
      "mean_motion_rev_day": 1.0036642
    },
    {
      "epoch": "2026-04-27T16:25:09.251904Z",
      "apogee_km": 35763.63838083702,
      "perigee_km": 35756.4074725936,
      "latitude_deg": -3.2438350432261016,
      "longitude_deg": -110.94182082436777,
      "height_km": 35756.54455309352,
      "semi_major_axis_km": 42138.159926715314,
      "eccentricity": 8.58e-05,
      "inclination_deg": 14.056,
      "raan_deg": 4.1286,
      "arg_perigee_deg": 0.2522,
      "mean_anomaly_deg": 346.2366,
      "mean_motion_rev_day": 1.00366646
    },
    {
      "epoch": "2026-04-28T16:22:41.112192Z",
      "apogee_km": 35763.5619029856,
      "perigee_km": 35756.36471545279,
      "latitude_deg": -3.0745040407122084,
      "longitude_deg": -110.62488275868276,
      "height_km": 35756.59710344902,
      "semi_major_axis_km": 42138.100309219204,
      "eccentricity": 8.54e-05,
      "inclination_deg": 14.0563,
      "raan_deg": 4.1211,
      "arg_perigee_deg": 7.7978,
      "mean_anomaly_deg": 339.4037,
      "mean_motion_rev_day": 1.00366859
    },
    {
      "epoch": "2026-04-29T06:03:55.311264Z",
      "apogee_km": 35763.5704509551,
      "perigee_km": 35756.28899302553,
      "latitude_deg": -3.2134237190447417,
      "longitude_deg": -111.17411462504224,
      "height_km": 35763.622912806044,
      "semi_major_axis_km": 42138.06672199032,
      "eccentricity": 8.64e-05,
      "inclination_deg": 14.0565,
      "raan_deg": 4.1166,
      "arg_perigee_deg": 12.731,
      "mean_anomaly_deg": 180.5397,
      "mean_motion_rev_day": 1.00366979
    },
    {
      "epoch": "2026-04-30T06:01:27.200064Z",
      "apogee_km": 35763.506864646355,
      "perigee_km": 35756.25069832878,
      "latitude_deg": -3.3833332542554153,
      "longitude_deg": -110.85416494788159,
      "height_km": 35763.56434593267,
      "semi_major_axis_km": 42138.01578148757,
      "eccentricity": 8.61e-05,
      "inclination_deg": 14.0568,
      "raan_deg": 4.1088,
      "arg_perigee_deg": 20.8327,
      "mean_anomaly_deg": 173.152,
      "mean_motion_rev_day": 1.00367161
    },
    {
      "epoch": "2026-05-02T05:55:38.755776Z",
      "apogee_km": 35763.41444723812,
      "perigee_km": 35756.183577418415,
      "latitude_deg": -3.6698353531328407,
      "longitude_deg": -110.20650107565257,
      "height_km": 35763.29375570679,
      "semi_major_axis_km": 42137.936012328275,
      "eccentricity": 8.58e-05,
      "inclination_deg": 14.0574,
      "raan_deg": 4.093,
      "arg_perigee_deg": 36.8785,
      "mean_anomaly_deg": 158.3176,
      "mean_motion_rev_day": 1.00367446
    },
    {
      "epoch": "2026-05-03T16:10:20.352288Z",
      "apogee_km": 35763.34013419964,
      "perigee_km": 35756.18511884305,
      "latitude_deg": -2.2239073637255133,
      "longitude_deg": -109.03478217677468,
      "height_km": 35757.61287817836,
      "semi_major_axis_km": 42137.89962652135,
      "eccentricity": 8.49e-05,
      "inclination_deg": 14.0578,
      "raan_deg": 4.0817,
      "arg_perigee_deg": 46.645,
      "mean_anomaly_deg": 304.1299,
      "mean_motion_rev_day": 1.00367576
    },
    {
      "epoch": "2026-05-04T15:20:00.407040Z",
      "apogee_km": 35763.35760948575,
      "perigee_km": 35756.135176272204,
      "latitude_deg": -4.881346142068465,
      "longitude_deg": -108.41324790568403,
      "height_km": 35759.01379900171,
      "semi_major_axis_km": 42137.883392878975,
      "eccentricity": 8.57e-05,
      "inclination_deg": 14.0581,
      "raan_deg": 4.0739,
      "arg_perigee_deg": 52.4437,
      "mean_anomaly_deg": 287.0368,
      "mean_motion_rev_day": 1.00367634
    }
  ]
}